STARLINK-4689           
1 53590U 22104C   26068.90009008 -.00000244  00000+0  27396-5 0  9991
2 53590  53.2176 243.3854 0001371 107.4665 252.6477 15.08840101195992
LEMUR-2-LANGER2SPACE    
1 63358U 25061H   26068.93705617  .00006238  00000+0  35148-3 0  9991
2 63358  97.5541  45.3892 0015335 237.4180 122.5571 15.13463796 52602
